start=new Date('2021-12-10T00:00:00.000Z').valueOf();
sats=[{"MEAN_MOTION_DDOT":"0.0000000000000","RA_OF_ASC_NODE":"243.0358","FILE":"3236488","NORAD_CAT_ID":"49177","RCS_SIZE":"LARGE","MEAN_MOTION":"15.69751586","COUNTRY_CODE":"US","INCLINATION":"69.9984","OBJECT_NAME":"STARLINK-3103","PERIAPSIS":"357.349","APOAPSIS":"361.871","OBJECT_TYPE":"PAYLOAD","MEAN_ANOMALY":"86.6209","SEMIMAJOR_AXIS":"6737.745","MEAN_ELEMENT_THEORY":"SGP4","REF_FRAME":"TEME","BSTAR":"-0.00003994000000","CLASSIFICATION_TYPE":"U","GP_ID":"191400290","ELEMENT_SET_NO":"999","MEAN_MOTION_DOT":"-0.00004978","TIME_SYSTEM":"UTC","LAUNCH_DATE":"2021-09-14","OBJECT_ID":"2021-082AZ","TLE_LINE1":"1 49177U 21082AZ  21343.83901623 -.00004978  00000-0 -39940-4 0  9995","SITE":"AFWTR","CENTER_NAME":"EARTH","TLE_LINE2":"2 49177  69.9984 243.0358 0003356 273.4603  86.6209 15.69751586 14911","REV_AT_EPOCH":"1491","DECAY_DATE":null,"ARG_OF_PERICENTER":"273.4603","ECCENTRICITY":"0.00033560","EPHEMERIS_TYPE":"0","EPOCH":"2021-12-09T20:08:11.002272","PERIOD":"91.734"},{"PERIOD":"94.398","EPOCH":"2021-12-09T22:00:00.999936","EPHEMERIS_TYPE":"0","ECCENTRICITY":"0.00035150","ARG_OF_PERICENTER":"284.1841","DECAY_DATE":null,"SITE":"AFWTR","TLE_LINE1":"1 49178U 21082BA  21343.91667824 -.00661598  00000-0 -28113-1 0  9991","REV_AT_EPOCH":"362","TLE_LINE2":"2 49178  70.0001 245.6342 0003515 284.1841 161.6368 15.25449402  3625","CENTER_NAME":"EARTH","OBJECT_ID":"2021-082BA","LAUNCH_DATE":"2021-09-14","TIME_SYSTEM":"UTC","MEAN_MOTION_DOT":"-0.00661598","GP_ID":"191400111","ELEMENT_SET_NO":"999","BSTAR":"-0.02811300000000","CLASSIFICATION_TYPE":"U","REF_FRAME":"TEME","MEAN_ELEMENT_THEORY":"SGP4","SEMIMAJOR_AXIS":"6867.573","MEAN_ANOMALY":"161.6368","OBJECT_TYPE":"PAYLOAD","APOAPSIS":"491.852","PERIAPSIS":"487.024","INCLINATION":"70.0001","OBJECT_NAME":"STARLINK-3086","COUNTRY_CODE":"US","RCS_SIZE":"LARGE","MEAN_MOTION":"15.25449402","FILE":"3236488","NORAD_CAT_ID":"49178","MEAN_MOTION_DDOT":"0.0000000000000","RA_OF_ASC_NODE":"245.6342"},{"SEMIMAJOR_AXIS":"6737.805","MEAN_ELEMENT_THEORY":"SGP4","REF_FRAME":"TEME","OBJECT_NAME":"STARLINK-3043","INCLINATION":"69.9962","PERIAPSIS":"357.177","APOAPSIS":"362.162","OBJECT_TYPE":"PAYLOAD","MEAN_ANOMALY":"92.6000","MEAN_MOTION":"15.69730644","RCS_SIZE":"LARGE","COUNTRY_CODE":"US","MEAN_MOTION_DDOT":"0.0000000000000","RA_OF_ASC_NODE":"243.0420","FILE":"3236488","NORAD_CAT_ID":"49179","EPHEMERIS_TYPE":"0","EPOCH":"2021-12-09T20:07:38.459712","PERIOD":"91.735","TLE_LINE1":"1 49179U 21082BB  21343.83863958  .00008295  00000-0  71248-4 0  9996","SITE":"AFWTR","TLE_LINE2":"2 49179  69.9962 243.0420 0003699 267.4772  92.6000 15.69730644 13714","REV_AT_EPOCH":"1371","CENTER_NAME":"EARTH","DECAY_DATE":null,"ARG_OF_PERICENTER":"267.4772","ECCENTRICITY":"0.00036990","MEAN_MOTION_DOT":"0.00008295","TIME_SYSTEM":"UTC","OBJECT_ID":"2021-082BB","LAUNCH_DATE":"2021-09-14","BSTAR":"0.00007124800000","CLASSIFICATION_TYPE":"U","GP_ID":"191401010","ELEMENT_SET_NO":"999"},{"MEAN_MOTION_DDOT":"0.0000000000000","RA_OF_ASC_NODE":"242.8079","FILE":"3236488","NORAD_CAT_ID":"49180","MEAN_MOTION":"15.69755603","RCS_SIZE":"LARGE","COUNTRY_CODE":"US","PERIAPSIS":"357.235","APOAPSIS":"361.961","OBJECT_NAME":"STARLINK-3050","INCLINATION":"69.9986","MEAN_ANOMALY":"175.3846","OBJECT_TYPE":"PAYLOAD","MEAN_ELEMENT_THEORY":"SGP4","SEMIMAJOR_AXIS":"6737.733","REF_FRAME":"TEME","GP_ID":"191400831","ELEMENT_SET_NO":"999","BSTAR":"-0.00026911000000","CLASSIFICATION_TYPE":"U","MEAN_MOTION_DOT":"-0.00032224","OBJECT_ID":"2021-082BC","LAUNCH_DATE":"2021-09-14","TIME_SYSTEM":"UTC","DECAY_DATE":null,"TLE_LINE1":"1 49180U 21082BC  21343.91667824 -.00032224  00000-0 -26911-3 0  9998","SITE":"AFWTR","TLE_LINE2":"2 49180  69.9986 242.8079 0003507 271.9399 175.3846 15.69755603  3675","REV_AT_EPOCH":"367","CENTER_NAME":"EARTH","ECCENTRICITY":"0.00035070","ARG_OF_PERICENTER":"271.9399","EPHEMERIS_TYPE":"0","EPOCH":"2021-12-09T22:00:00.999936","PERIOD":"91.734"},{"EPHEMERIS_TYPE":"0","EPOCH":"2021-12-09T22:00:00.999936","PERIOD":"94.355","DECAY_DATE":null,"TLE_LINE1":"1 49181U 21082BD  21343.91667824 -.00660081  00000-0 -27450-1 0  9994","SITE":"AFWTR","CENTER_NAME":"EARTH","TLE_LINE2":"2 49181  70.0001 245.6090 0003343 283.5797 248.6980 15.26159079  3637","REV_AT_EPOCH":"363","ECCENTRICITY":"0.00033430","ARG_OF_PERICENTER":"283.5797","MEAN_MOTION_DOT":"-0.00660081","OBJECT_ID":"2021-082BD","LAUNCH_DATE":"2021-09-14","TIME_SYSTEM":"UTC","GP_ID":"191399931","ELEMENT_SET_NO":"999","BSTAR":"-0.02745000000000","CLASSIFICATION_TYPE":"U","MEAN_ELEMENT_THEORY":"SGP4","SEMIMAJOR_AXIS":"6865.444","REF_FRAME":"TEME","APOAPSIS":"489.604","PERIAPSIS":"485.014","INCLINATION":"70.0001","OBJECT_NAME":"STARLINK-3059","MEAN_ANOMALY":"248.6980","OBJECT_TYPE":"PAYLOAD","MEAN_MOTION":"15.26159079","RCS_SIZE":"LARGE","COUNTRY_CODE":"US","MEAN_MOTION_DDOT":"0.0000000000000","RA_OF_ASC_NODE":"245.6090","FILE":"3236488","NORAD_CAT_ID":"49181"},{"PERIOD":"91.536","EPOCH":"2021-12-09T22:00:00.999936","EPHEMERIS_TYPE":"0","ECCENTRICITY":"0.00023900","ARG_OF_PERICENTER":"27.1282","DECAY_DATE":null,"REV_AT_EPOCH":"368","TLE_LINE2":"2 49408  53.2189   2.4849 0002390  27.1282   7.7128 15.73151997  3688","CENTER_NAME":"EARTH","SITE":"AFETR","TLE_LINE1":"1 49408U 21104A   21343.91667824  .00064717  00000-0  46290-3 0  9998","OBJECT_ID":"2021-104A","LAUNCH_DATE":"2021-11-13","TIME_SYSTEM":"UTC","MEAN_MOTION_DOT":"0.00064717","ELEMENT_SET_NO":"999","GP_ID":"191400857","CLASSIFICATION_TYPE":"U","BSTAR":"0.00046290000000","REF_FRAME":"TEME","MEAN_ELEMENT_THEORY":"SGP4","SEMIMAJOR_AXIS":"6728.032","MEAN_ANOMALY":"7.7128","OBJECT_TYPE":"PAYLOAD","PERIAPSIS":"348.289","APOAPSIS":"351.505","OBJECT_NAME":"STARLINK-3151","INCLINATION":"53.2189","COUNTRY_CODE":"US","MEAN_MOTION":"15.73151997","RCS_SIZE":"LARGE","NORAD_CAT_ID":"49408","FILE":"3236488","RA_OF_ASC_NODE":"2.4849","MEAN_MOTION_DDOT":"0.0000000000000"},{"EPOCH":"2021-12-09T22:00:00.999936","PERIOD":"91.534","EPHEMERIS_TYPE":"0","ARG_OF_PERICENTER":"21.7677","ECCENTRICITY":"0.00022200","TLE_LINE1":"1 49409U 21104B   21343.91667824  .00061802  00000-0  44179-3 0  9995","SITE":"AFETR","TLE_LINE2":"2 49409  53.2189   2.4960 0002220  21.7677   8.3409 15.73184566  3691","REV_AT_EPOCH":"369","CENTER_NAME":"EARTH","DECAY_DATE":null,"TIME_SYSTEM":"UTC","OBJECT_ID":"2021-104B","LAUNCH_DATE":"2021-11-13","MEAN_MOTION_DOT":"0.00061802","BSTAR":"0.00044179000000","CLASSIFICATION_TYPE":"U","GP_ID":"191399957","ELEMENT_SET_NO":"999","REF_FRAME":"TEME","SEMIMAJOR_AXIS":"6727.939","MEAN_ELEMENT_THEORY":"SGP4","MEAN_ANOMALY":"8.3409","OBJECT_TYPE":"PAYLOAD","INCLINATION":"53.2189","OBJECT_NAME":"STARLINK-3075","PERIAPSIS":"348.311","APOAPSIS":"351.298","COUNTRY_CODE":"US","RCS_SIZE":"LARGE","MEAN_MOTION":"15.73184566","NORAD_CAT_ID":"49409","FILE":"3236488","MEAN_MOTION_DDOT":"0.0000000000000","RA_OF_ASC_NODE":"2.4960"},{"PERIOD":"91.536","EPOCH":"2021-12-09T22:00:00.999936","EPHEMERIS_TYPE":"0","ECCENTRICITY":"0.00021990","ARG_OF_PERICENTER":"17.3398","DECAY_DATE":null,"SITE":"AFETR","TLE_LINE1":"1 49410U 21104C   21343.91667824  .00063821  00000-0  45658-3 0  9993","TLE_LINE2":"2 49410  53.2184   2.4892 0002199  17.3398  14.6139 15.73153159  3681","CENTER_NAME":"EARTH","REV_AT_EPOCH":"368","LAUNCH_DATE":"2021-11-13","OBJECT_ID":"2021-104C","TIME_SYSTEM":"UTC","MEAN_MOTION_DOT":"0.00063821","GP_ID":"191400496","ELEMENT_SET_NO":"999","BSTAR":"0.00045658000000","CLASSIFICATION_TYPE":"U","REF_FRAME":"TEME","MEAN_ELEMENT_THEORY":"SGP4","SEMIMAJOR_AXIS":"6728.029","MEAN_ANOMALY":"14.6139","OBJECT_TYPE":"PAYLOAD","PERIAPSIS":"348.414","APOAPSIS":"351.373","INCLINATION":"53.2184","OBJECT_NAME":"STARLINK-3147","COUNTRY_CODE":"US","RCS_SIZE":"LARGE","MEAN_MOTION":"15.73153159","FILE":"3236488","NORAD_CAT_ID":"49410","MEAN_MOTION_DDOT":"0.0000000000000","RA_OF_ASC_NODE":"2.4892"},{"MEAN_MOTION_DDOT":"0.0000000000000","RA_OF_ASC_NODE":"2.3774","NORAD_CAT_ID":"49411","FILE":"3236488","RCS_SIZE":"LARGE","MEAN_MOTION":"15.73176307","COUNTRY_CODE":"US","INCLINATION":"53.2187","OBJECT_NAME":"STARLINK-3162","PERIAPSIS":"346.280","APOAPSIS":"353.375","OBJECT_TYPE":"PAYLOAD","MEAN_ANOMALY":"161.0271","SEMIMAJOR_AXIS":"6727.963","MEAN_ELEMENT_THEORY":"SGP4","REF_FRAME":"TEME","BSTAR":"0.00044775000000","CLASSIFICATION_TYPE":"U","GP_ID":"191400677","ELEMENT_SET_NO":"999","MEAN_MOTION_DOT":"0.00062664","TIME_SYSTEM":"UTC","LAUNCH_DATE":"2021-11-13","OBJECT_ID":"2021-104D","TLE_LINE1":"1 49411U 21104D   21343.91667824  .00062664  00000-0  44775-3 0  9997","SITE":"AFETR","REV_AT_EPOCH":"368","TLE_LINE2":"2 49411  53.2187   2.3774 0005273 286.3669 161.0271 15.73176307  3682","CENTER_NAME":"EARTH","DECAY_DATE":null,"ARG_OF_PERICENTER":"286.3669","ECCENTRICITY":"0.00052730","EPHEMERIS_TYPE":"0","EPOCH":"2021-12-09T22:00:00.999936","PERIOD":"91.535"},{"OBJECT_NAME":"STARLINK-3144","INCLINATION":"53.2183","PERIAPSIS":"348.303","APOAPSIS":"351.250","OBJECT_TYPE":"PAYLOAD","MEAN_ANOMALY":"4.8105","SEMIMAJOR_AXIS":"6727.911","MEAN_ELEMENT_THEORY":"SGP4","REF_FRAME":"TEME","MEAN_MOTION_DDOT":"0.0000000000000","RA_OF_ASC_NODE":"2.4907","NORAD_CAT_ID":"49412","FILE":"3236488","MEAN_MOTION":"15.73194417","RCS_SIZE":"LARGE","COUNTRY_CODE":"US","TLE_LINE1":"1 49412U 21104E   21343.91667824 -.00022762  00000-0 -15821-3 0  9995","SITE":"AFETR","TLE_LINE2":"2 49412  53.2183   2.4907 0002190  26.2430   4.8105 15.73194417  3682","CENTER_NAME":"EARTH","REV_AT_EPOCH":"368","DECAY_DATE":null,"ARG_OF_PERICENTER":"26.2430","ECCENTRICITY":"0.00021900","EPHEMERIS_TYPE":"0","PERIOD":"91.534","EPOCH":"2021-12-09T22:00:00.999936","BSTAR":"-0.00015821000000","CLASSIFICATION_TYPE":"U","GP_ID":"191401216","ELEMENT_SET_NO":"999","MEAN_MOTION_DOT":"-0.00022762","TIME_SYSTEM":"UTC","OBJECT_ID":"2021-104E","LAUNCH_DATE":"2021-11-13"}];
